{
  "type": "FeatureCollection",
  "features": [
    {
      "type": "Feature",
      "properties": {
        "name": "Karachi",
        "province": "Sindh",
        "type": "City"
      },
      "geometry": {
        "type": "Point",
        "coordinates": [
          67.0011,
          24.8607
        ]
      }
    },
    {
      "type": "Feature",
      "properties": {
        "name": "Lahore",
        "province": "Punjab",
        "type": "City"
      },
      "geometry": {
        "type": "Point",
        "coordinates": [
          74.3587,
          31.5204
        ]
      }
    },
    {
      "type": "Feature",
      "properties": {
        "name": "Islamabad",
        "province": "Islamabad Capital Territory",
        "type": "City"
      },
      "geometry": {
        "type": "Point",
        "coordinates": [
          73.0479,
          33.6844
        ]
      }
    },
    {
      "type": "Feature",
      "properties": {
        "name": "Rawalpindi",
        "province": "Punjab",
        "type": "City"
      },
      "geometry": {
        "type": "Point",
        "coordinates": [
          73.0169,
          33.5651
        ]
      }
    },
    {
      "type": "Feature",
      "properties": {
        "name": "Peshawar",
        "province": "Khyber Pakhtunkhwa",
        "type": "City"
      },
      "geometry": {
        "type": "Point",
        "coordinates": [
          71.5249,
          34.0151
        ]
      }
    },
    {
      "type": "Feature",
      "properties": {
        "name": "Quetta",
        "province": "Balochistan",
        "type": "City"
      },
      "geometry": {
        "type": "Point",
        "coordinates": [
          66.975,
          30.1798
        ]
      }
    },
    {
      "type": "Feature",
      "properties": {
        "name": "Multan",
        "province": "Punjab",
        "type": "City"
      },
      "geometry": {
        "type": "Point",
        "coordinates": [
          71.5249,
          30.1575
        ]
      }
    },
    {
      "type": "Feature",
      "properties": {
        "name": "Faisalabad",
        "province": "Punjab",
        "type": "City"
      },
      "geometry": {
        "type": "Point",
        "coordinates": [
          73.135,
          31.4504
        ]
      }
    },
    {
      "type": "Feature",
      "properties": {
        "name": "Gujranwala",
        "province": "Punjab",
        "type": "City"
      },
      "geometry": {
        "type": "Point",
        "coordinates": [
          74.1945,
          32.1877
        ]
      }
    },
    {
      "type": "Feature",
      "properties": {
        "name": "Sialkot",
        "province": "Punjab",
        "type": "City"
      },
      "geometry": {
        "type": "Point",
        "coordinates": [
          74.5229,
          32.4945
        ]
      }
    },
    {
      "type": "Feature",
      "properties": {
        "name": "Hyderabad",
        "province": "Sindh",
        "type": "City"
      },
      "geometry": {
        "type": "Point",
        "coordinates": [
          68.3578,
          25.396
        ]
      }
    },
    {
      "type": "Feature",
      "properties": {
        "name": "Sukkur",
        "province": "Sindh",
        "type": "City"
      },
      "geometry": {
        "type": "Point",
        "coordinates": [
          68.8228,
          27.7244
        ]
      }
    },
    {
      "type": "Feature",
      "properties": {
        "name": "Gilgit",
        "province": "Gilgit-Baltistan",
        "type": "City"
      },
      "geometry": {
        "type": "Point",
        "coordinates": [
          74.308,
          35.9208
        ]
      }
    },
    {
      "type": "Feature",
      "properties": {
        "name": "Skardu",
        "province": "Gilgit-Baltistan",
        "type": "City"
      },
      "geometry": {
        "type": "Point",
        "coordinates": [
          75.6333,
          35.2971
        ]
      }
    },
    {
      "type": "Feature",
      "properties": {
        "name": "Muzaffarabad",
        "province": "Azad Jammu and Kashmir",
        "type": "City"
      },
      "geometry": {
        "type": "Point",
        "coordinates": [
          73.4711,
          34.37
        ]
      }
    }
  ]
}